<?xml version="1.0" encoding="UTF-8"?>
<osm version="0.6" generator="CGImap 0.8.3">
  <bounds minlat="21.0330" minlon="105.8490" maxlat="21.0345" maxlon="105.8510"/>
  
  <!-- Nodes for Streets -->
  <node id="1001" lat="21.0335" lon="105.8495"/>
  <node id="1002" lat="21.0340" lon="105.8495"/>
  <node id="1003" lat="21.0335" lon="105.8505"/>
  <node id="1004" lat="21.0340" lon="105.8505"/>
  
  <!-- Ways for Streets -->
  <way id="2001">
    <nd ref="1001"/><nd ref="1002"/>
    <tag k="highway" v="residential"/><tag k="name" v="Hang Ngang Street"/>
  </way>
  <way id="2002">
    <nd ref="1001"/><nd ref="1003"/>
    <tag k="highway" v="residential"/><tag k="name" v="Hang Dao Street"/>
  </way>
  <way id="2003">
    <nd ref="1003"/><nd ref="1004"/>
    <tag k="highway" v="residential"/>
  </way>
  <way id="2004">
    <nd ref="1002"/><nd ref="1004"/>
    <tag k="highway" v="residential"/>
  </way>

  <!-- Buildings -->
  <node id="5001" lat="21.0336" lon="105.8496"/>
  <node id="5002" lat="21.0338" lon="105.8496"/>
  <node id="5003" lat="21.0338" lon="105.8498"/>
  <node id="5004" lat="21.0336" lon="105.8498"/>
  <way id="6001">
    <nd ref="5001"/><nd ref="5002"/><nd ref="5003"/><nd ref="5004"/><nd ref="5001"/>
    <tag k="building" v="yes"/><tag k="building:levels" v="3"/>
  </way>

  <node id="5101" lat="21.0336" lon="105.8502"/>
  <node id="5102" lat="21.0338" lon="105.8502"/>
  <node id="5103" lat="21.0338" lon="105.8504"/>
  <node id="5104" lat="21.0336" lon="105.8504"/>
  <way id="6101">
    <nd ref="5101"/><nd ref="5102"/><nd ref="5103"/><nd ref="5104"/><nd ref="5101"/>
    <tag k="building" v="yes"/><tag k="building:levels" v="5"/>
  </way>
</osm>
